OBJECT_NAME,OBJECT_ID,EPOCH,MEAN_MOTION,ECCENTRICITY,INCLINATION,RA_OF_ASC_NODE,ARG_OF_PERICENTER,MEAN_ANOMALY,EPHEMERIS_TYPE,CLASSIFICATION_TYPE,NORAD_CAT_ID,ELEMENT_SET_NO,REV_AT_EPOCH,BSTAR,MEAN_MOTION_DOT,MEAN_MOTION_DDOT
STARLINK-37794,2026-119Q,2026-06-14T06:00:02.000160,15.74975034,.00019709,97.2840,190.9443,71.2915,77.3326,0,U,69310,999,357,-.20443809E-1,-.2632174E-1,0
STARLINK-37795,2026-119R,2026-06-14T06:00:02.000160,15.60357743,.0001042,97.2842,190.8857,75.9676,289.1294,0,U,69311,999,357,-.32466609E-1,-.2334825E-1,0
STARLINK-37790,2026-119S,2026-06-14T03:46:32.584512,15.80870024,.00009029,97.2823,190.8555,67.3874,292.7490,0,U,69312,999,356,.61989686E-3,.120547E-2,0
STARLINK-37676,2026-119T,2026-06-14T03:43:37.444800,15.80943434,.0001596,97.2821,190.8581,104.6239,255.5207,0,U,69313,999,356,.14070606E-2,.279826E-2,0
STARLINK-37617,2026-119U,2026-06-14T03:42:20.195424,15.81138679,.00012932,97.2820,190.8586,77.4651,282.6762,0,U,69314,999,356,.27599256E-2,.573162E-2,0
STARLINK-37627,2026-119V,2026-06-14T03:41:53.085696,15.80995267,.00017112,97.2817,190.8596,119.9509,240.1930,0,U,69315,999,356,.11892058E-2,.235836E-2,0
STARLINK-37738,2026-119W,2026-06-14T03:45:08.730720,15.80930380,.00012419,97.2820,190.8563,111.2598,248.8803,0,U,69316,999,356,.12734039E-2,.252274E-2,0
STARLINK-37799,2026-119X,2026-06-14T03:42:56.351232,15.80885085,.00009304,97.2821,190.8584,63.2291,296.9072,0,U,69317,999,231,.82531301E-3,.16141E-2,0
STARLINK-37802,2026-119Y,2026-06-14T02:08:52.086336,15.80925731,.00014411,97.2822,190.7951,97.0774,263.0658,0,U,69318,999,355,.11163565E-2,.22028E-2,0
STARLINK-37803,2026-119Z,2026-06-14T06:00:02.000160,15.73120142,.00018439,97.2837,190.9534,83.7119,84.2048,0,U,69319,999,352,-.22265049E-1,-.2643105E-1,0
GUOWANG TEST OBJECT A,2026-120A,2026-06-07T11:06:12.288672,15.38803685,.00095994,54.9967,71.5399,294.3963,65.6063,0,U,69320,999,119,.24095813E-3,.9002E-4,0
GUOWANG TEST OBJECT B,2026-120B,2026-06-14T05:10:12.352800,15.38651111,.00097065,54.9983,41.1132,321.8388,38.1952,0,U,69321,999,223,.2452347E-3,.9122E-4,0
GUOWANG TEST OBJECT C,2026-120C,2026-06-07T21:56:00.773376,15.39284097,.00098504,54.9968,69.4792,309.3319,50.6835,0,U,69322,999,126,.41735581E-3,.16153E-3,0
GUOWANG TEST OBJECT D,2026-120D,2026-06-13T18:10:26.410368,15.38963400,.00107274,54.9976,43.1373,333.1315,26.9156,0,U,69323,999,216,.1239695E-3,.4463E-4,0
QIANFAN-163,2026-121A,2026-06-07T22:57:09.243936,13.60351284,.00192,89.0167,301.4498,214.2671,145.7248,0,U,69325,999,90,.25988E-4,.32E-6,0
QIANFAN-164,2026-121B,2026-06-11T09:53:52.001952,13.60355109,.0019383,89.0157,301.0998,205.3125,154.7084,0,U,69326,999,137,.13228E-3,.112E-5,0
SZ-22 MODULE,2025-272C,2026-06-13T18:47:42.089856,15.60088365,.00066118,41.4809,342.8006,57.2068,302.9407,0,U,69328,999,279,.25736494E-3,.21216E-3,0
STARLINK-37733,2026-122A,2026-06-14T06:00:02.000160,15.80987895,.00004856,97.2836,194.5209,59.4057,291.5927,0,U,69329,999,288,-.17849145E-2,-.33193E-2,0
STARLINK-37772,2026-122B,2026-06-14T06:00:02.000160,15.80822164,.00012973,97.2834,194.5340,83.6859,297.1721,0,U,69330,999,283,-.10276956E-4,-.211E-4,0
STARLINK-37768,2026-122C,2026-06-14T06:00:02.000160,15.80825263,.0000977,97.2836,194.5381,97.7043,292.5922,0,U,69331,999,283,-.14846358E-4,-.2986E-4,0
STARLINK-37833,2026-122D,2026-06-14T06:00:02.000160,15.80818188,.00008441,97.2832,194.5393,90.5856,302.4977,0,U,69332,999,283,-.2576663E-4,-.5075E-4,0
STARLINK-37818,2026-122E,2026-06-14T06:00:02.000160,15.80814136,.00012692,97.2831,194.5351,87.7876,294.2823,0,U,69333,999,288,-.10208664E-4,-.2097E-4,0
STARLINK-37868,2026-122F,2026-06-14T06:00:02.000160,15.81577259,.00009572,97.2832,194.5518,89.6909,334.0953,0,U,69334,999,288,-.52771704E-2,-.940621E-2,0
STARLINK-37877,2026-122G,2026-06-14T06:00:02.000160,15.81559493,.00010221,97.2831,194.5521,83.9385,340.5748,0,U,69335,999,288,-.51430095E-2,-.918377E-2,0
STARLINK-37791,2026-122H,2026-06-14T06:00:02.000160,15.82114723,.00010247,97.2823,194.5567,24.9591,48.2101,0,U,69336,999,288,-.99187997E-2,-.1743009E-1,0
STARLINK-37765,2026-122J,2026-06-14T06:00:02.000160,15.80816238,.00006911,97.2833,194.5574,73.4909,2.4495,0,U,69337,999,293,.16082188E-3,.30771E-3,0
STARLINK-37788,2026-122K,2026-06-14T06:00:02.000160,15.80844061,.00012934,97.2833,194.5592,88.9791,350.9301,0,U,69338,999,288,-.1867166E-3,-.35806E-3,0
STARLINK-37743,2026-122L,2026-06-14T06:00:02.000160,15.80828877,.00013385,97.2831,194.5534,92.3878,334.2076,0,U,69339,999,288,-.87075236E-4,-.16799E-3,0
STARLINK-37780,2026-122M,2026-06-14T06:00:02.000160,15.80832924,.00011461,97.2834,194.5565,87.7647,344.3781,0,U,69340,999,293,-.94206117E-4,-.18163E-3,0
