STARLINK-37794          
1 69310U 26119Q   26165.25002315 -.02632174  00000+0 -20444-1 0  9997
2 69310  97.2840 190.9443 0001970  71.2915  77.3326 15.74975034  3571
STARLINK-37795          
1 69311U 26119R   26165.25002315 -.02334825  00000+0 -32467-1 0  9998
2 69311  97.2842 190.8857 0001042  75.9676 289.1294 15.60357743  3570
STARLINK-37790          
1 69312U 26119S   26165.15732158  .00120547  00000+0  61990-3 0  9998
2 69312  97.2823 190.8555 0000902  67.3874 292.7490 15.80870024  3565
STARLINK-37676          
1 69313U 26119T   26165.15529450  .00279826  00000+0  14071-2 0  9990
2 69313  97.2821 190.8581 0001596 104.6239 255.5207 15.80943434  3562
STARLINK-37617          
1 69314U 26119U   26165.15440041  .00573162  00000+0  27599-2 0  9998
2 69314  97.2820 190.8586 0001293  77.4651 282.6762 15.81138679  3561
STARLINK-37627          
1 69315U 26119V   26165.15408664  .00235836  00000+0  11892-2 0  9996
2 69315  97.2817 190.8596 0001711 119.9509 240.1930 15.80995267  3567
STARLINK-37738          
1 69316U 26119W   26165.15635105  .00252274  00000+0  12734-2 0  9990
2 69316  97.2820 190.8563 0001241 111.2598 248.8803 15.80930380  3566
STARLINK-37799          
1 69317U 26119X   26165.15481888  .00161410  00000+0  82531-3 0  9992
2 69317  97.2821 190.8584 0000930  63.2291 296.9072 15.80885085  2316
STARLINK-37802          
1 69318U 26119Y   26165.08949174  .00220280  00000+0  11164-2 0  9996
2 69318  97.2822 190.7951 0001441  97.0774 263.0658 15.80925731  3559
STARLINK-37803          
1 69319U 26119Z   26165.25002315 -.02643105  00000+0 -22265-1 0  9995
2 69319  97.2837 190.9534 0001843  83.7119  84.2048 15.73120142  3524
GUOWANG TEST OBJECT A   
1 69320U 26120A   26158.46264223  .00009002  00000+0  24096-3 0  9996
2 69320  54.9967  71.5399 0009599 294.3963  65.6063 15.38803685  1198
GUOWANG TEST OBJECT B   
1 69321U 26120B   26165.21542075  .00009122  00000+0  24523-3 0  9990
2 69321  54.9983  41.1132 0009706 321.8388  38.1952 15.38651111  2235
GUOWANG TEST OBJECT C   
1 69322U 26120C   26158.91389784  .00016153  00000+0  41736-3 0  9993
2 69322  54.9968  69.4792 0009850 309.3319  50.6835 15.39284097  1266
GUOWANG TEST OBJECT D   
1 69323U 26120D   26164.75725012  .00004463  00000+0  12397-3 0  9993
2 69323  54.9976  43.1373 0010727 333.1315  26.9156 15.38963400  2169
QIANFAN-163             
1 69325U 26121A   26158.95635699  .00000032  00000+0  25988-4 0  9991
2 69325  89.0167 301.4498 0019200 214.2671 145.7248 13.60351284   905
QIANFAN-164             
1 69326U 26121B   26162.41240743  .00000112  00000+0  13228-3 0  9992
2 69326  89.0157 301.0998 0019383 205.3125 154.7084 13.60355109  1373
SZ-22 MODULE            
1 69328U 25272C   26164.78312604  .00021216  00000+0  25736-3 0  9993
2 69328  41.4809 342.8006 0006611  57.2068 302.9407 15.60088365  2796
STARLINK-37733          
1 69329U 26122A   26165.25002315 -.00331930  00000+0 -17849-2 0  9991
2 69329  97.2836 194.5209 0000485  59.4057 291.5927 15.80987895  2886
STARLINK-37772          
1 69330U 26122B   26165.25002315 -.00002110  00000+0 -10277-4 0  9998
2 69330  97.2834 194.5340 0001297  83.6859 297.1721 15.80822164  2839
STARLINK-37768          
1 69331U 26122C   26165.25002315 -.00002986  00000+0 -14846-4 0  9996
2 69331  97.2836 194.5381 0000977  97.7043 292.5922 15.80825263  2837
STARLINK-37833          
1 69332U 26122D   26165.25002315 -.00005075  00000+0 -25767-4 0  9993
2 69332  97.2832 194.5393 0000844  90.5856 302.4977 15.80818188  2832
STARLINK-37818          
1 69333U 26122E   26165.25002315 -.00002097  00000+0 -10209-4 0  9990
2 69333  97.2831 194.5351 0001269  87.7876 294.2823 15.80814136  2880
STARLINK-37868          
1 69334U 26122F   26165.25002315 -.00940621  00000+0 -52772-2 0  9994
2 69334  97.2832 194.5518 0000957  89.6909 334.0953 15.81577259  2888
STARLINK-37877          
1 69335U 26122G   26165.25002315 -.00918377  00000+0 -51430-2 0  9998
2 69335  97.2831 194.5521 0001022  83.9385 340.5748 15.81559493  2885
STARLINK-37791          
1 69336U 26122H   26165.25002315 -.01743009  00000+0 -99188-2 0  9990
2 69336  97.2823 194.5567 0001024  24.9591  48.2101 15.82114723  2882
STARLINK-37765          
1 69337U 26122J   26165.25002315  .00030771  00000+0  16082-3 0  9996
2 69337  97.2833 194.5574 0000691  73.4909   2.4495 15.80816238  2935
STARLINK-37788          
1 69338U 26122K   26165.25002315 -.00035806  00000+0 -18672-3 0  9990
2 69338  97.2833 194.5592 0001293  88.9791 350.9301 15.80844061  2881
STARLINK-37743          
1 69339U 26122L   26165.25002315 -.00016799  00000+0 -87075-4 0  9995
2 69339  97.2831 194.5534 0001338  92.3878 334.2076 15.80828877  2882
STARLINK-37780          
1 69340U 26122M   26165.25002315 -.00018163  00000+0 -94206-4 0  9998
2 69340  97.2834 194.5565 0001146  87.7647 344.3781 15.80832924  2939
